OBJECT_NAME,OBJECT_ID,EPOCH,MEAN_MOTION,ECCENTRICITY,INCLINATION,RA_OF_ASC_NODE,ARG_OF_PERICENTER,MEAN_ANOMALY,EPHEMERIS_TYPE,CLASSIFICATION_TYPE,NORAD_CAT_ID,ELEMENT_SET_NO,REV_AT_EPOCH,BSTAR,MEAN_MOTION_DOT,MEAN_MOTION_DDOT
STARS (KUKAI),2009-002G,2026-06-30T09:32:16.307808,14.95834580,.00099887,98.1549,129.2455,121.2061,239.0139,0,U,33498,999,94045,.36711069E-3,.4041E-4,0
KKS-1 (KISEKI),2009-002H,2026-07-01T03:42:27.479808,14.83159780,.0006492,98.1184,104.8180,240.5169,119.5397,0,U,33499,999,93826,.19099E-3,.1503E-4,0
NOAA 19,2009-005A,2026-07-01T04:58:49.303776,14.13476502,.0013557,98.9517,253.0922,355.3600,4.7445,0,U,33591,999,89646,.55472E-4,.59E-6,0
UK-DMC 2,2009-041C,2026-07-01T04:34:12.076320,14.76074726,.000124,97.8853,316.8152,97.4636,262.6715,0,U,35683,999,90863,.59912E-4,.364E-5,0
METEOR-M 1,2009-049A,2026-07-01T03:16:45.531840,14.23159815,.0001074,98.7393,144.5102,272.2896,87.8159,0,U,35865,999,87123,.4835E-4,.65E-6,0
OCEANSAT-2,2009-051A,2026-07-01T05:03:32.546304,13.99659748,.0016354,98.2318,167.6626,194.2637,165.8070,0,U,35931,999,88129,-.12808E-3,-.225E-5,0
SWISSCUBE,2009-051B,2026-07-01T03:01:00.704640,14.62508299,.0006978,98.4025,90.2564,158.3297,201.8200,0,U,35932,999,89119,.23153E-3,.1125E-4,0
BEESAT-1,2009-051C,2026-07-01T00:07:55.371072,14.61742388,.0005167,98.3952,89.7404,169.6659,190.4649,0,U,35933,999,89120,.18662E-3,.881E-5,0
ITUPSAT1,2009-051E,2026-07-01T00:12:14.310144,14.60460825,.0007044,98.4036,88.9208,186.0225,174.0891,0,U,35935,999,89075,.17649E-3,.807E-5,0
DMSP 5D-3 F18 (USA 210),2009-057A,2026-07-01T05:07:28.444224,14.14904725,.0010409,98.9044,162.9525,205.9359,154.1293,0,U,35951,999,86157,.16492E-3,.274E-5,0
PROBA-2,2009-059B,2026-07-01T01:32:39.250752,14.54868522,.0012158,98.2452,5.2248,234.6770,125.3291,0,U,36037,999,88354,.61235E-4,.218E-5,0
YAOGAN-7,2009-069A,2026-07-01T02:27:36.270432,14.78023940,.0024566,98.0054,67.8826,357.8391,2.2709,0,U,36110,999,89168,.84731E-4,.561E-5,0
XIWANG-1 (HOPE-1),2009-072B,2026-07-01T03:38:28.666752,13.16440551,.0007156,100.4030,135.7615,197.4134,162.6735,0,U,36122,999,79484,.86519E-3,.286E-5,0
RADUGA-1M 2,2010-002A,2026-07-01T06:01:17.711616,0.98965436,.0005117,3.6557,78.6910,268.6137,264.9759,0,U,36358,999,5016,0,.72E-6,0
COSMOS 2463,2010-017A,2026-07-01T02:56:57.511104,13.71666493,.0037614,82.9595,239.4674,91.5617,330.9747,0,U,36519,999,80984,.47342E-4,.58E-6,0
CARTOSAT-2B,2010-035A,2026-07-01T05:05:14.822304,14.78599688,.0011947,97.9948,232.6722,139.6801,220.5298,0,U,36795,999,86192,.23624E-4,.121E-5,0
AISSAT 1,2010-035C,2026-06-30T23:25:15.937824,14.97415888,.0009268,98.0902,81.7061,17.7400,342.4143,0,U,36797,999,86628,.19936E-3,.2257E-4,0
TISAT 1,2010-035E,2026-07-01T02:16:53.654016,15.32235292,.0003233,98.0709,129.8832,144.7314,215.4140,0,U,36799,999,86983,.77502E-3,.24088E-3,0
YAOGAN-10,2010-038A,2026-07-01T05:36:34.771392,14.85390209,.0001666,97.8967,205.5257,86.7229,3.6322,0,U,36834,999,85929,.19869E-3,.1657E-4,0
SHIJIAN-6 04B (SJ-6 04B),2010-051B,2026-07-01T04:06:43.831296,14.99358731,.0006858,97.8712,187.7278,263.8970,96.1472,0,U,37180,999,85777,.14254E-3,.1682E-4,0
FENGYUN 3B,2010-059A,2026-07-01T04:01:16.943808,14.14843477,.002266,98.9615,228.2409,144.7195,291.3646,0,U,37214,999,80940,-.1267E-3,-.29E-5,0
COSMO-SKYMED 4,2010-060A,2026-07-01T05:10:53.753088,14.82157471,.0001479,97.8882,5.6120,84.3314,275.8068,0,U,37216,999,84664,.876E-4,.645E-5,0
O/OREOS (USA 219),2010-062C,2026-07-01T01:24:24.427584,14.93802741,.0013142,71.9708,48.9174,33.5439,326.6560,0,U,37224,999,11871,.25417E-3,.2639E-4,0
ELEKTRO-L 1 (GOMS 2),2011-001A,2026-06-30T16:56:31.984800,1.00158673,.00045136,9.7147,54.3673,33.3945,328.0472,0,U,37344,999,5662,0,0,0
RESOURCESAT-2,2011-015A,2026-07-01T03:58:26.436000,14.21603286,.0010759,98.7639,249.5105,211.7479,148.3051,0,U,37387,999,78816,.71166E-4,.112E-5,0
YOUTHSAT,2011-015B,2026-06-30T12:02:00.824352,14.25635487,.00134602,98.3690,154.9555,306.3227,166.0908,0,U,37388,999,78953,.88442135E-4,.168E-5,0
APRIZESAT 6,2011-044F,2026-07-01T00:37:37.124832,14.76937493,.0044088,98.2353,92.8077,43.0066,329.2231,0,U,37793,999,79919,.13136E-3,.883E-5,0
JUGNU,2011-058B,2026-06-29T12:31:59.134080,14.13779747,.00183885,19.9594,233.4895,212.2255,288.6400,0,U,37839,999,76077,.71335275E-4,.404E-5,0
SRMSAT,2011-058D,2026-07-01T02:16:18.558336,14.11578458,.00118,19.9733,335.2931,357.4483,159.7900,0,U,37841,999,75978,.64337E-4,.383E-5,0
SUOMI NPP,2011-061A,2026-07-01T03:44:21.084576,14.19520173,.000076,98.7955,122.9365,319.2961,40.8158,0,U,37849,999,76042,.56203E-4,.74E-6,0
YAOGAN-12,2011-066B,2026-07-01T03:52:00.120000,15.26759958,.0010212,97.1134,220.0728,166.0530,194.0993,0,U,37875,999,81417,.18203E-3,.4726E-4,0
